{
    "links": {
        "self": "http://www.neowsapp.com/rest/v1/neo/3893546?api_key=iIulBulltgU6a56xZRHN4H3l9WmuAYTsLGpBGhQ2"
    },
    "id": "3893546",
    "neo_reference_id": "3893546",
    "name": "(2019 WU2)",
    "designation": "2019 WU2",
    "nasa_jpl_url": "http://ssd.jpl.nasa.gov/sbdb.cgi?sstr=3893546",
    "absolute_magnitude_h": 24.7,
    "estimated_diameter": {
        "kilometers": {
            "estimated_diameter_min": 0.0305179233,
            "estimated_diameter_max": 0.0682401509
        },
        "meters": {
            "estimated_diameter_min": 30.5179232594,
            "estimated_diameter_max": 68.2401509401
        },
        "miles": {
            "estimated_diameter_min": 0.0189629525,
            "estimated_diameter_max": 0.0424024508
        },
        "feet": {
            "estimated_diameter_min": 100.1244233463,
            "estimated_diameter_max": 223.8850168104
        }
    },
    "is_potentially_hazardous_asteroid": false,
    "close_approach_data": [
        {
            "close_approach_date": "1906-06-10",
            "close_approach_date_full": "1906-Jun-10 18:32",
            "epoch_date_close_approach": -2005795680000,
            "relative_velocity": {
                "kilometers_per_second": "25.7981611911",
                "kilometers_per_hour": "92873.3802879042",
                "miles_per_hour": "57707.9067683369"
            },
            "miss_distance": {
                "astronomical": "0.4923679157",
                "lunar": "191.5311192073",
                "kilometers": "73657191.445059559",
                "miles": "45768456.4524335542"
            },
            "orbiting_body": "Earth"
        },
        {
            "close_approach_date": "2010-09-22",
            "close_approach_date_full": "2010-Sep-22 20:35",
            "epoch_date_close_approach": 1285187700000,
            "relative_velocity": {
                "kilometers_per_second": "10.6619143747",
                "kilometers_per_hour": "38382.891749068",
                "miles_per_hour": "23849.6362648584"
            },
            "miss_distance": {
                "astronomical": "0.0445048341",
                "lunar": "17.3123804649",
                "kilometers": "6657828.386063367",
                "miles": "4136982.7246617846"
            },
            "orbiting_body": "Mars"
        },
        {
            "close_approach_date": "2019-11-08",
            "close_approach_date_full": "2019-Nov-08 04:32",
            "epoch_date_close_approach": 1573187520000,
            "relative_velocity": {
                "kilometers_per_second": "12.6619530778",
                "kilometers_per_hour": "45583.0310801102",
                "miles_per_hour": "28323.5228397496"
            },
            "miss_distance": {
                "astronomical": "0.038454374",
                "lunar": "14.958751486",
                "kilometers": "5752692.44258338",
                "miles": "3574557.329395444"
            },
            "orbiting_body": "Earth"
        }
    ],
    "orbital_data": {
        "orbit_id": "6",
        "orbit_determination_date": "2020-08-22 06:32:31",
        "first_observation_date": "2019-11-15",
        "last_observation_date": "2019-12-06",
        "data_arc_in_days": 21,
        "observations_used": 22,
        "orbit_uncertainty": "7",
        "minimum_orbit_intersection": ".00176393",
        "jupiter_tisserand_invariant": "4.086",
        "epoch_osculation": "2459000.5",
        "eccentricity": ".4864590665657077",
        "semi_major_axis": "1.681319268014696",
        "inclination": "3.283490537496212",
        "ascending_node_longitude": "222.96107580",
        "orbital_period": "796.2944924223515",
        "perihelion_distance": ".8634262662973278",
        "perihelion_argument": "125.5091341913217",
        "aphelion_distance": "2.499212269732063",
        "perihelion_time": "2458755.290090098289",
        "mean_anomaly": "110.8579406295765",
        "mean_motion": ".4520940473980541",
        "equinox": "J2000",
        "orbit_class": {
            "orbit_class_type": "APO",
            "orbit_class_description": "Near-Earth asteroid orbits which cross the Earth’s orbit similar to that of 1862 Apollo",
            "orbit_class_range": "a (semi-major axis) > 1.0 AU; q (perihelion) < 1.017 AU"
        }
    },
    "is_sentry_object": false
}